{"type": "FeatureCollection", "features": [{"type": "Feature", "geometry": {"type": "Point", "coordinates": [109.9694, 41.7958]}, "properties": {"name_en": "Bayan Obo Main Mine", "name_zh": "白云鄂博主矿", "name_local": "Bayan Obo", "prefecture": "Baotou", "banner": "Bayan Obo Mining District", "commodity_primary": "Rare Earth", "commodity_secondary": "Iron;Niobium;Fluorite", "operator": "Baogang Group / China Northern Rare Earth", "notes": "World's largest REE deposit; ~40% of global REE reserves", "source": "mindat:720", "opened_display": "1957", "opened_year": 1957}}, {"type": "Feature", "geometry": {"type": "Point", "coordinates": [109.9817, 41.8011]}, "properties": {"name_en": "Bayan Obo East Mine", "name_zh": "白云鄂博东矿", "name_local": "Bayan Obo East", "prefecture": "Baotou", "banner": "Bayan Obo Mining District", "commodity_primary": "Rare Earth", "commodity_secondary": "Iron;Niobium", "operator": "Baogang Group", "notes": "Eastern open pit", "source": "mindat:134499", "opened_display": "1957", "opened_year": 1957}}, {"type": "Feature", "geometry": {"type": "Point", "coordinates": [109.88, 41.79]}, "properties": {"name_en": "Bayan Obo West Mine", "name_zh": "白云鄂博西矿", "name_local": "Bayan Obo West", "prefecture": "Baotou", "banner": "Bayan Obo Mining District", "commodity_primary": "Rare Earth", "commodity_secondary": "Iron", "operator": "Baogang Group", "notes": "Newer pit opened post-2013", "source": "mindat", "opened_display": "2013", "opened_year": 2013}}, {"type": "Feature", "geometry": {"type": "Point", "coordinates": [107.65, 41.07]}, "properties": {"name_en": "Huogeqi Copper Mine", "name_zh": "霍各乞铜矿", "name_local": "Huogeqi", "prefecture": "Bayannur", "banner": "Urad Rear Banner", "commodity_primary": "Copper", "commodity_secondary": "Lead;Zinc;Iron", "operator": "Inner Mongolia Huogeqi Mining", "notes": "Largest Cu-Pb-Zn in Langshan belt", "source": "academic", "opened_display": "1980s", "opened_year": 1980}}, {"type": "Feature", "geometry": {"type": "Point", "coordinates": [106.85, 41.1]}, "properties": {"name_en": "Dongshengmiao Mine", "name_zh": "东升庙矿", "name_local": "Dongshengmiao", "prefecture": "Bayannur", "banner": "Urad Rear Banner", "commodity_primary": "Zinc", "commodity_secondary": "Lead;Copper", "operator": "Inner Mongolia Dongshengmiao Mining", "notes": "SEDEX-type giant Pb-Zn", "source": "academic", "opened_display": "1980s", "opened_year": 1980}}, {"type": "Feature", "geometry": {"type": "Point", "coordinates": [106.55, 41.1]}, "properties": {"name_en": "Tanyaokou Mine", "name_zh": "炭窑口矿", "name_local": "Tanyaokou", "prefecture": "Bayannur", "banner": "Urad Rear Banner", "commodity_primary": "Lead", "commodity_secondary": "Zinc;Copper", "operator": "Inner Mongolia Nonferrous", "notes": "Langshan SEDEX belt", "source": "academic", "opened_display": "1980s", "opened_year": 1980}}, {"type": "Feature", "geometry": {"type": "Point", "coordinates": [108.95, 41.5]}, "properties": {"name_en": "Jiashengpan Mine", "name_zh": "甲生盘矿", "name_local": "Jiashengpan", "prefecture": "Bayannur", "banner": "Urad Middle Banner", "commodity_primary": "Zinc", "commodity_secondary": "Lead", "operator": "Inner Mongolia Xitietashan", "notes": "Zhaertai segment of Langshan belt", "source": "academic", "opened_display": "2000s", "opened_year": 2000}}, {"type": "Feature", "geometry": {"type": "Point", "coordinates": [107.1, 41.13]}, "properties": {"name_en": "Miaogou Sanguikou", "name_zh": "庙沟与三贵口", "name_local": "Miaogou Sanguikou", "prefecture": "Bayannur", "banner": "Urad Front Banner", "commodity_primary": "Zinc", "commodity_secondary": "Lead;Copper;Silver", "operator": null, "notes": "Polymetallic deposit; in Jasansky 2023", "source": "jasansky", "opened_display": null, "opened_year": null}}, {"type": "Feature", "geometry": {"type": "Point", "coordinates": [118.2, 44.7]}, "properties": {"name_en": "Hua'aobaote Ag-Pb-Zn", "name_zh": "花敖包特银铅锌矿", "name_local": "Hua'aobaote", "prefecture": "Xilingol", "banner": "West Ujimqin Banner", "commodity_primary": "Silver", "commodity_secondary": "Lead;Zinc", "operator": "Yulong Mining (Silvercorp)", "notes": "Acquired by Canadian Silvercorp Metals 2012; in Bayanhua Town, in Mergen incident area", "source": "company report", "opened_display": "2002", "opened_year": 2002}}, {"type": "Feature", "geometry": {"type": "Point", "coordinates": [117.9, 44.65]}, "properties": {"name_en": "Baiyinchagan Mine", "name_zh": "白音查干银矿", "name_local": "Baiyinchagan", "prefecture": "Xilingol", "banner": "West Ujimqin Banner", "commodity_primary": "Silver", "commodity_secondary": "Tin;Lead;Zinc", "operator": null, "notes": "Sn-Ag-Pb-Zn polymetallic; large reserves", "source": "mindat:225464", "opened_display": null, "opened_year": null}}, {"type": "Feature", "geometry": {"type": "Point", "coordinates": [117.5, 45.0]}, "properties": {"name_en": "Daolundaba Cu-W", "name_zh": "道伦达坝铜钨矿", "name_local": "Daolundaba", "prefecture": "Xilingol", "banner": "West Ujimqin Banner", "commodity_primary": "Copper", "commodity_secondary": "Tungsten", "operator": null, "notes": "Cu-W polymetallic", "source": "mindat", "opened_display": "2000s", "opened_year": 2000}}, {"type": "Feature", "geometry": {"type": "Point", "coordinates": [118.0, 45.1]}, "properties": {"name_en": "Maodeng Cu-Sn", "name_zh": "毛登铜锡矿", "name_local": "Maodeng", "prefecture": "Xilingol", "banner": "West Ujimqin Banner", "commodity_primary": "Copper", "commodity_secondary": "Tin", "operator": null, "notes": "Cu-Sn deposit", "source": "mindat", "opened_display": "2010s", "opened_year": 2010}}, {"type": "Feature", "geometry": {"type": "Point", "coordinates": [117.7, 44.8]}, "properties": {"name_en": "Shihuiyao Li-Ta-Nb", "name_zh": "石灰窑稀有金属矿", "name_local": "Shihuiyao", "prefecture": "Xilingol", "banner": "West Ujimqin Banner", "commodity_primary": "Lithium", "commodity_secondary": "Niobium;Tantalum;Beryllium;Rubidium", "operator": null, "notes": "Strategic critical minerals deposit", "source": "mindat", "opened_display": "exploration", "opened_year": null}}, {"type": "Feature", "geometry": {"type": "Point", "coordinates": [118.0, 45.7]}, "properties": {"name_en": "Chaobuleng Fe-Zn-Pb", "name_zh": "朝不楞铁锌铅矿", "name_local": "Chaobuleng", "prefecture": "Xilingol", "banner": "East Ujimqin Banner", "commodity_primary": "Iron", "commodity_secondary": "Zinc;Lead;Silver;Copper;Tungsten", "operator": null, "notes": "Skarn-type Fe-Zn-Pb mine since 1977", "source": "mindat:722", "opened_display": "1977", "opened_year": 1977}}, {"type": "Feature", "geometry": {"type": "Point", "coordinates": [118.4, 45.5]}, "properties": {"name_en": "Rongguan Mine", "name_zh": "容冠矿", "name_local": "Rongguan", "prefecture": "Xilingol", "banner": "East Ujimqin Banner", "commodity_primary": "Iron", "commodity_secondary": "Zinc", "operator": null, "notes": "Polymetallic skarn", "source": "mindat:233880", "opened_display": "2006", "opened_year": 2006}}, {"type": "Feature", "geometry": {"type": "Point", "coordinates": [118.5, 46.5]}, "properties": {"name_en": "Shamai W Mine", "name_zh": "沙麦钨矿", "name_local": "Shamai", "prefecture": "Xilingol", "banner": "East Ujimqin Banner", "commodity_primary": "Tungsten", "commodity_secondary": "Molybdenum", "operator": null, "notes": "Quartz vein W deposit; 550 W-bearing veins", "source": "mindat:225450", "opened_display": null, "opened_year": null}}, {"type": "Feature", "geometry": {"type": "Point", "coordinates": [117.3, 45.8]}, "properties": {"name_en": "Highland 1017 Ag-Pb-Zn", "name_zh": "1017高地银铅锌矿", "name_local": "Highland 1017", "prefecture": "Xilingol", "banner": "East Ujimqin Banner", "commodity_primary": "Silver", "commodity_secondary": "Lead;Zinc", "operator": null, "notes": "Ag-Pb-Zn deposit", "source": "mindat", "opened_display": null, "opened_year": null}}, {"type": "Feature", "geometry": {"type": "Point", "coordinates": [118.2, 46.0]}, "properties": {"name_en": "Huanaote Pb-Zn-Ag", "name_zh": "花脑特铅锌银矿", "name_local": "Huanaote", "prefecture": "Xilingol", "banner": "East Ujimqin Banner", "commodity_primary": "Lead", "commodity_secondary": "Zinc;Silver", "operator": null, "notes": "Epithermal Pb-Zn", "source": "mindat", "opened_display": null, "opened_year": null}}, {"type": "Feature", "geometry": {"type": "Point", "coordinates": [117.5, 43.55]}, "properties": {"name_en": "Huanggang Fe-Sn", "name_zh": "黄岗梁铁锡矿", "name_local": "Huanggang", "prefecture": "Chifeng", "banner": "Hexigten Banner", "commodity_primary": "Iron", "commodity_secondary": "Tin", "operator": null, "notes": "Major Fe-Sn deposit", "source": "academic", "opened_display": "1990s", "opened_year": 1990}}, {"type": "Feature", "geometry": {"type": "Point", "coordinates": [118.2, 43.65]}, "properties": {"name_en": "Dajing Ag-Pb-Zn", "name_zh": "大井银铅锌矿", "name_local": "Dajing", "prefecture": "Chifeng", "banner": "Linxi County", "commodity_primary": "Silver", "commodity_secondary": "Lead;Zinc;Copper", "operator": null, "notes": "Large Ag-Pb-Zn", "source": "academic", "opened_display": "1990s", "opened_year": 1990}}, {"type": "Feature", "geometry": {"type": "Point", "coordinates": [119.3, 43.78]}, "properties": {"name_en": "Baiyinnuoer Pb-Zn", "name_zh": "白音诺尔铅锌矿", "name_local": "Baiyinnuoer", "prefecture": "Chifeng", "banner": "Bairin Right Banner", "commodity_primary": "Lead", "commodity_secondary": "Zinc", "operator": null, "notes": "Skarn-type Pb-Zn", "source": "academic", "opened_display": "1980s", "opened_year": 1980}}, {"type": "Feature", "geometry": {"type": "Point", "coordinates": [120.05, 42.29]}, "properties": {"name_en": "Erdaohezi Pb-Zn", "name_zh": "二道河子铅锌矿", "name_local": "Erdaohezi", "prefecture": "Chifeng", "banner": "Aohan Banner", "commodity_primary": "Lead", "commodity_secondary": "Zinc", "operator": null, "notes": "Older Pb-Zn", "source": "academic", "opened_display": "1960s", "opened_year": 1960}}, {"type": "Feature", "geometry": {"type": "Point", "coordinates": [119.0, 43.7]}, "properties": {"name_en": "Haobugao Pb-Zn", "name_zh": "浩布高铅锌矿", "name_local": "Haobugao", "prefecture": "Chifeng", "banner": "Bairin Left Banner", "commodity_primary": "Lead", "commodity_secondary": "Zinc;Tin", "operator": null, "notes": "Pb-Zn-Sn", "source": "academic", "opened_display": "2000s", "opened_year": 2000}}, {"type": "Feature", "geometry": {"type": "Point", "coordinates": [119.2, 43.8]}, "properties": {"name_en": "Anle Pb-Zn", "name_zh": "安乐铅锌矿", "name_local": "Anle", "prefecture": "Chifeng", "banner": "Bairin Left Banner", "commodity_primary": "Lead", "commodity_secondary": "Zinc", "operator": null, "notes": "Pb-Zn", "source": "academic", "opened_display": null, "opened_year": null}}, {"type": "Feature", "geometry": {"type": "Point", "coordinates": [117.7, 49.45]}, "properties": {"name_en": "Wunugetushan Cu-Mo", "name_zh": "乌奴格吐山铜钼矿", "name_local": "Wunugetushan", "prefecture": "Hulun Buir", "banner": "New Barag Right Banner", "commodity_primary": "Copper", "commodity_secondary": "Molybdenum", "operator": "Zijin Mining", "notes": "Major porphyry Cu-Mo", "source": "company report", "opened_display": "2009", "opened_year": 2009}}, {"type": "Feature", "geometry": {"type": "Point", "coordinates": [109.9, 40.65]}, "properties": {"name_en": "Bayan Obo Iron Tailings", "name_zh": "白云鄂博尾矿坝", "name_local": "Baotou Tailings", "prefecture": "Baotou", "banner": "Donghe District", "commodity_primary": "Tailings", "commodity_secondary": "Rare Earth waste;Radioactive", "operator": "Baogang Group", "notes": "10 km² toxic tailings pond; severe health crisis in Dalahai village", "source": "environmental reporting", "opened_display": "1965", "opened_year": 1965}}, {"type": "Feature", "geometry": {"type": "Point", "coordinates": [108.85, 40.95]}, "properties": {"name_en": "Wulashan Gold Mine", "name_zh": "乌拉山金矿", "name_local": "Wulashan", "prefecture": "Bayannur", "banner": "Wuyuan County", "commodity_primary": "Gold", "commodity_secondary": "Silver", "operator": "Inner Mongolia Wulashan Gold", "notes": "Gold deposit south of Yellow River", "source": "academic", "opened_display": "1990s", "opened_year": 1990}}, {"type": "Feature", "geometry": {"type": "Point", "coordinates": [120.4, 41.75]}, "properties": {"name_en": "Jinchanggouliang Gold", "name_zh": "金厂沟梁金矿", "name_local": "Jinchanggouliang", "prefecture": "Chifeng", "banner": "Aohan Banner", "commodity_primary": "Gold", "commodity_secondary": "Silver", "operator": "Aohan Banner Gold", "notes": "Major gold mine in eastern Inner Mongolia", "source": "academic", "opened_display": "1980s", "opened_year": 1980}}, {"type": "Feature", "geometry": {"type": "Point", "coordinates": [117.8, 43.4]}, "properties": {"name_en": "Erdaogou Au-Ag", "name_zh": "二道沟金银矿", "name_local": "Erdaogou", "prefecture": "Chifeng", "banner": "Hexigten Banner", "commodity_primary": "Gold", "commodity_secondary": "Silver", "operator": null, "notes": "Gold-silver deposit", "source": "academic", "opened_display": null, "opened_year": null}}, {"type": "Feature", "geometry": {"type": "Point", "coordinates": [110.4, 41.05]}, "properties": {"name_en": "Hadamengou Gold", "name_zh": "哈达门沟金矿", "name_local": "Hadamengou", "prefecture": "Baotou", "banner": "Guyang County", "commodity_primary": "Gold", "commodity_secondary": null, "operator": "Inner Mongolia Pacific Mining", "notes": "Major gold deposit north of Baotou", "source": "academic", "opened_display": "1990s", "opened_year": 1990}}, {"type": "Feature", "geometry": {"type": "Point", "coordinates": [119.95, 42.45]}, "properties": {"name_en": "Aohan Cu", "name_zh": "敖汉铜矿", "name_local": "Aohan Cu", "prefecture": "Chifeng", "banner": "Aohan Banner", "commodity_primary": "Copper", "commodity_secondary": null, "operator": null, "notes": "Multiple Cu deposits in Aohan area", "source": "academic", "opened_display": null, "opened_year": null}}, {"type": "Feature", "geometry": {"type": "Point", "coordinates": [111.9, 43.8]}, "properties": {"name_en": "Erlian Uranium", "name_zh": "二连铀矿", "name_local": "Erlian", "prefecture": "Xilingol", "banner": "Sonid Right Banner", "commodity_primary": "Uranium", "commodity_secondary": null, "operator": "CNNC", "notes": "In-situ leach uranium; Sonid Basin", "source": "company", "opened_display": "2000s", "opened_year": 2000}}, {"type": "Feature", "geometry": {"type": "Point", "coordinates": [117.5, 48.5]}, "properties": {"name_en": "Baiyinwula Fluorite", "name_zh": "白音乌拉萤石矿", "name_local": "Baiyinwula", "prefecture": "Hulun Buir", "banner": "New Barag Left Banner", "commodity_primary": "Fluorite", "commodity_secondary": null, "operator": null, "notes": "Major fluorite deposit", "source": "academic", "opened_display": null, "opened_year": null}}, {"type": "Feature", "geometry": {"type": "Point", "coordinates": [113.8, 44.3]}, "properties": {"name_en": "Subei Fluorite", "name_zh": "苏北萤石矿", "name_local": "Subei", "prefecture": "Xilingol", "banner": "Sonid Left Banner", "commodity_primary": "Fluorite", "commodity_secondary": null, "operator": null, "notes": "Fluorite", "source": "academic", "opened_display": null, "opened_year": null}}]}